[{"OBJECT_NAME":"STARLINK-32295","OBJECT_ID":"2024-224J","EPOCH":"2026-03-09T06:35:22.757280","MEAN_MOTION":15.27598266,"ECCENTRICITY":9.106e-5,"INCLINATION":42.9978,"RA_OF_ASC_NODE":160.6962,"ARG_OF_PERICENTER":277.256,"MEAN_ANOMALY":82.8188,"EPHEMERIS_TYPE":0,"CLASSIFICATION_TYPE":"U","NORAD_CAT_ID":62147,"ELEMENT_SET_NO":999,"REV_AT_EPOCH":7230,"BSTAR":0.00097919655,"MEAN_MOTION_DOT":0.00026796,"MEAN_MOTION_DDOT":0},{"OBJECT_NAME":"SIMSAT 1","OBJECT_ID":"2000-026A","EPOCH":"2026-03-09T17:22:54.646176","MEAN_MOTION":15.27666538,"ECCENTRICITY":0.00084816,"INCLINATION":86.3501,"RA_OF_ASC_NODE":180.5413,"ARG_OF_PERICENTER":14.8337,"MEAN_ANOMALY":345.3157,"EPHEMERIS_TYPE":0,"CLASSIFICATION_TYPE":"U","NORAD_CAT_ID":26365,"ELEMENT_SET_NO":999,"REV_AT_EPOCH":42720,"BSTAR":0.00013499313,"MEAN_MOTION_DOT":3.69e-5,"MEAN_MOTION_DDOT":0}]
